*******************************************************************************
JPL/HORIZONS              1309 Hyperborea (1931 TO)        2023-Sep-04 11:11:24
Rec #:    1309 (+COV) Soln.date: 2023-Aug-21_21:59:33   # obs: 5001 (1919-2023)
 
IAU76/J2000 helio. ecliptic osc. elements (au, days, deg., period=Julian yrs):
 
  EPOCH=  2457129.5 ! 2015-Apr-17.00 (TDB)         Residual RMS= .24283
   EC= .1509653658988517   QR= 2.720814349121151   TP= 2456298.786950524
   OM= 206.102661210385    W=  244.9839430043475   IN= 10.28016758369707
   A= 3.204597598072791    MA= 142.7232913340366   ADIST= 3.688380847024431
   PER= 5.73678            N= .171808173           ANGMOM= .030441218
   DAN= 3.34511            DDN= 2.94364            L= 90.72944
   B= -9.3067472           MOID= 1.75542998        TP= 2013-Jan-06.2869505240
 
Asteroid physical parameters (km, seconds, rotational period in hours):
   GM= n.a.                RAD= 28.785             ROTPER= 13.88
   H= 10.43                G= .150                 B-V= n.a.
                           ALBEDO= .043            STYP= n.a.

ASTEROID comments: 
1: soln ref.= JPL#76, OCC=0
2: source=ORB
*******************************************************************************


*******************************************************************************
Ephemeris / API_USER Mon Sep  4 11:11:24 2023 Pasadena, USA      / Horizons
*******************************************************************************
Target body name: 1309 Hyperborea (1931 TO)       {source: JPL#76}
Center body name: Solar System Barycenter (0)     {source: DE441}
Center-site name: BODY CENTER
*******************************************************************************
Start time      : A.D. 2023-Aug-12 00:00:00.0000 TDB
Stop  time      : A.D. 2023-Aug-13 00:00:00.0000 TDB
Step-size       : 2880 minutes
*******************************************************************************
Center geodetic : 0.0, 0.0, 0.0                   {E-lon(deg),Lat(deg),Alt(km)}
Center cylindric: 0.0, 0.0, 0.0                   {E-lon(deg),Dxy(km),Dz(km)}
Center radii    : (undefined)
Small perturbers: Yes                             {source: SB441-N16}
Output units    : KM-S
Calendar mode   : Mixed Julian/Gregorian
Output type     : GEOMETRIC cartesian states
Output format   : 2 (position and velocity)
Reference frame : Ecliptic of J2000.0
*******************************************************************************
Initial IAU76/J2000 heliocentric ecliptic osculating elements (au, days, deg.):
  EPOCH=  2457129.5 ! 2015-Apr-17.00 (TDB)         Residual RMS= .24283        
   EC= .1509653658988517   QR= 2.720814349121151   TP= 2456298.786950524       
   OM= 206.102661210385    W=  244.9839430043475   IN= 10.28016758369707       
  Equivalent ICRF heliocentric cartesian coordinates (au, au/d):
   X=-1.662041884009305E+00  Y=-3.074490687578753E+00  Z=-9.123355607713010E-01
  VX= 7.133922088357433E-03 VY=-4.505481946332887E-03 VZ=-5.595319580738087E-04
Asteroid physical parameters (km, seconds, rotational period in hours):        
   GM= n.a.                RAD= 28.785             ROTPER= 13.88               
   H= 10.43                G= .150                 B-V= n.a.                   
                           ALBEDO= .043            STYP= n.a.                  
*******************************************************************************
JDTDB
   X     Y     Z
   VX    VY    VZ
*******************************************************************************
$$SOE
2460168.500000000 = A.D. 2023-Aug-12 00:00:00.0000 TDB 
 X = 4.175039310823345E+08 Y = 1.552552883513288E+08 Z = 7.991037570630558E+06
 VX=-8.181057300503451E+00 VY= 1.550643948508353E+01 VZ=-3.182495356616384E+00
$$EOE
*******************************************************************************
 
TIME

  Barycentric Dynamical Time ("TDB" or T_eph) output was requested. This
continuous coordinate time is equivalent to the relativistic proper time
of a clock at rest in a reference frame co-moving with the solar system
barycenter but outside the system's gravity well. It is the independent
variable in the solar system relativistic equations of motion.

  TDB runs at a uniform rate of one SI second per second and is independent
of irregularities in Earth's rotation.
 
CALENDAR SYSTEM

  Mixed calendar mode was active such that calendar dates after AD 1582-Oct-15
(if any) are in the modern Gregorian system. Dates prior to 1582-Oct-5 (if any)
are in the Julian calendar system, which is automatically extended for dates
prior to its adoption on 45-Jan-1 BC.  The Julian calendar is useful for
matching historical dates. The Gregorian calendar more accurately corresponds
to the Earth's orbital motion and seasons. A "Gregorian-only" calendar mode is
available if such physical events are the primary interest.

REFERENCE FRAME AND COORDINATES

  Ecliptic at the standard reference epoch

    Reference epoch: J2000.0
    X-Y plane: adopted Earth orbital plane at the reference epoch
               Note: IAU76 obliquity of 84381.448 arcseconds wrt ICRF X-Y plane
    X-axis   : ICRF
    Z-axis   : perpendicular to the X-Y plane in the directional (+ or -) sense
               of Earth's north pole at the reference epoch.

  Symbol meaning:

    JDTDB    Julian Day Number, Barycentric Dynamical Time
      X      X-component of position vector (km)
      Y      Y-component of position vector (km)
      Z      Z-component of position vector (km)
      VX     X-component of velocity vector (km/sec)                           
      VY     Y-component of velocity vector (km/sec)                           
      VZ     Z-component of velocity vector (km/sec)                           

ABERRATIONS AND CORRECTIONS

 Geometric state vectors have NO corrections or aberrations applied.

Computations by ...

    Solar System Dynamics Group, Horizons On-Line Ephemeris System
    4800 Oak Grove Drive, Jet Propulsion Laboratory
    Pasadena, CA  91109   USA

    General site: https://ssd.jpl.nasa.gov/
    Mailing list: https://ssd.jpl.nasa.gov/email_list.html
    System news : https://ssd.jpl.nasa.gov/horizons/news.html
    User Guide  : https://ssd.jpl.nasa.gov/horizons/manual.html
    Connect     : browser        https://ssd.jpl.nasa.gov/horizons/app.html#/x
                  API            https://ssd-api.jpl.nasa.gov/doc/horizons.html
                  command-line   telnet ssd.jpl.nasa.gov 6775
                  e-mail/batch   https://ssd.jpl.nasa.gov/ftp/ssd/hrzn_batch.txt
                  scripts        https://ssd.jpl.nasa.gov/ftp/ssd/SCRIPTS
    Author      : Jon.D.Giorgini@jpl.nasa.gov
*******************************************************************************
